[{"OBJECT_NAME":"OOV-CUBE (TUBSAT-30)","OBJECT_ID":"2024-128F","EPOCH":"2026-03-14T14:55:09.422112","MEAN_MOTION":15.02294035,"ECCENTRICITY":0.00541042,"INCLINATION":61.9949,"RA_OF_ASC_NODE":195.2009,"ARG_OF_PERICENTER":113.3541,"MEAN_ANOMALY":247.3255,"EPHEMERIS_TYPE":0,"CLASSIFICATION_TYPE":"U","NORAD_CAT_ID":60240,"ELEMENT_SET_NO":999,"REV_AT_EPOCH":9190,"BSTAR":0.0003179983,"MEAN_MOTION_DOT":4.141e-5,"MEAN_MOTION_DDOT":0}]
